{
  "norad_id": 50487,
  "name": "ONEWEB-0407",
  "history": [
    {
      "epoch": "2026-03-28T18:18:24.243840",
      "apogee_km": 1191.1980449861458,
      "perigee_km": 1188.2741215416963,
      "latitude_deg": -64.36303302240364,
      "longitude_deg": 21.926937599899247,
      "semi_major_axis_km": 7567.873083263921,
      "eccentricity": 0.00019318,
      "inclination_deg": 87.9247,
      "raan_deg": 351.428,
      "arg_perigee_deg": 82.0269,
      "mean_anomaly_deg": 278.1083,
      "mean_motion_rev_day": 13.18687841
    },
    {
      "epoch": "2026-03-29T03:24:42.917760",
      "apogee_km": 1191.1937310240564,
      "perigee_km": 1188.2831261342253,
      "latitude_deg": -51.16798668744408,
      "longitude_deg": 58.34768639993854,
      "semi_major_axis_km": 7567.875428579141,
      "eccentricity": 0.0001923,
      "inclination_deg": 87.9246,
      "raan_deg": 351.3527,
      "arg_perigee_deg": 82.0933,
      "mean_anomaly_deg": 278.0418,
      "mean_motion_rev_day": 13.18687228
    }
  ]
}